{"fetched_at":"2026-07-10T18:08:10.998Z","source":"https://celestrak.org/NORAD/elements/gp.php?NAME=GHGSAT&FORMAT=JSON","constellation":"ghgsat","records":[{"OBJECT_NAME":"GHGSAT-C1","OBJECT_ID":"2020-061G","EPOCH":"2026-07-10T03:20:55.627872","CLASSIFICATION_TYPE":"U","MEAN_MOTION":15.73154453,"ECCENTRICITY":0.00005451,"INCLINATION":97.2092,"RA_OF_ASC_NODE":277.0451,"ARG_OF_PERICENTER":172.3706,"MEAN_ANOMALY":187.7567,"EPHEMERIS_TYPE":0,"NORAD_CAT_ID":46278,"ELEMENT_SET_NO":999,"REV_AT_EPOCH":32708,"BSTAR":0.00025691465,"MEAN_MOTION_DOT":0.00035138,"MEAN_MOTION_DDOT":0},{"OBJECT_NAME":"GHGSAT-C2","OBJECT_ID":"2021-006DA","EPOCH":"2026-07-09T23:41:43.819872","CLASSIFICATION_TYPE":"U","MEAN_MOTION":15.38068179,"ECCENTRICITY":0.00068672,"INCLINATION":97.214,"RA_OF_ASC_NODE":237.8618,"ARG_OF_PERICENTER":89.1904,"MEAN_ANOMALY":271.0128,"EPHEMERIS_TYPE":0,"NORAD_CAT_ID":47509,"ELEMENT_SET_NO":999,"REV_AT_EPOCH":30335,"BSTAR":0.00012570131,"MEAN_MOTION_DOT":0.00004631,"MEAN_MOTION_DDOT":0},{"OBJECT_NAME":"GHGSAT-C3","OBJECT_ID":"2022-057F","EPOCH":"2026-07-10T06:11:52.862208","CLASSIFICATION_TYPE":"U","MEAN_MOTION":15.34639786,"ECCENTRICITY":0.00067007,"INCLINATION":97.6619,"RA_OF_ASC_NODE":337.7868,"ARG_OF_PERICENTER":50.4786,"MEAN_ANOMALY":309.7047,"EPHEMERIS_TYPE":0,"NORAD_CAT_ID":52737,"ELEMENT_SET_NO":999,"REV_AT_EPOCH":22907,"BSTAR":0.00013848541,"MEAN_MOTION_DOT":0.00004565,"MEAN_MOTION_DDOT":0},{"OBJECT_NAME":"GHGSAT-C5","OBJECT_ID":"2022-057N","EPOCH":"2026-07-10T08:42:19.617120","CLASSIFICATION_TYPE":"U","MEAN_MOTION":15.34617946,"ECCENTRICITY":0.00073749,"INCLINATION":97.6706,"RA_OF_ASC_NODE":339.4961,"ARG_OF_PERICENTER":47.1123,"MEAN_ANOMALY":313.0738,"EPHEMERIS_TYPE":0,"NORAD_CAT_ID":52744,"ELEMENT_SET_NO":999,"REV_AT_EPOCH":22909,"BSTAR":0.0001369551,"MEAN_MOTION_DOT":0.00004511,"MEAN_MOTION_DDOT":0},{"OBJECT_NAME":"GHGSAT-C4","OBJECT_ID":"2022-057Q","EPOCH":"2026-07-10T08:15:33.507648","CLASSIFICATION_TYPE":"U","MEAN_MOTION":15.34627933,"ECCENTRICITY":0.00066035,"INCLINATION":97.6545,"RA_OF_ASC_NODE":336.6838,"ARG_OF_PERICENTER":35.3778,"MEAN_ANOMALY":324.7901,"EPHEMERIS_TYPE":0,"NORAD_CAT_ID":52746,"ELEMENT_SET_NO":999,"REV_AT_EPOCH":22909,"BSTAR":0.00013764259,"MEAN_MOTION_DOT":0.00004535,"MEAN_MOTION_DDOT":0},{"OBJECT_NAME":"GHGSAT-C8","OBJECT_ID":"2023-054J","EPOCH":"2026-07-10T06:54:44.908992","CLASSIFICATION_TYPE":"U","MEAN_MOTION":15.53668609,"ECCENTRICITY":0.00036506,"INCLINATION":97.2965,"RA_OF_ASC_NODE":100.913,"ARG_OF_PERICENTER":20.604,"MEAN_ANOMALY":339.536,"EPHEMERIS_TYPE":0,"NORAD_CAT_ID":56186,"ELEMENT_SET_NO":999,"REV_AT_EPOCH":18202,"BSTAR":0.0002001899,"MEAN_MOTION_DOT":0.00012694,"MEAN_MOTION_DDOT":0},{"OBJECT_NAME":"GHGSAT-C6","OBJECT_ID":"2023-054AC","EPOCH":"2026-07-10T06:05:59.404128","CLASSIFICATION_TYPE":"U","MEAN_MOTION":15.53645279,"ECCENTRICITY":0.00039291,"INCLINATION":97.3027,"RA_OF_ASC_NODE":101.5775,"ARG_OF_PERICENTER":333.4671,"MEAN_ANOMALY":26.6381,"EPHEMERIS_TYPE":0,"NORAD_CAT_ID":56204,"ELEMENT_SET_NO":999,"REV_AT_EPOCH":18203,"BSTAR":0.00017925633,"MEAN_MOTION_DOT":0.00011345,"MEAN_MOTION_DDOT":0},{"OBJECT_NAME":"GHGSAT-C7","OBJECT_ID":"2023-054AH","EPOCH":"2026-07-10T07:21:54.097632","CLASSIFICATION_TYPE":"U","MEAN_MOTION":15.50375752,"ECCENTRICITY":0.00054123,"INCLINATION":97.2978,"RA_OF_ASC_NODE":99.9768,"ARG_OF_PERICENTER":326.979,"MEAN_ANOMALY":33.1123,"EPHEMERIS_TYPE":0,"NORAD_CAT_ID":56209,"ELEMENT_SET_NO":999,"REV_AT_EPOCH":18197,"BSTAR":0.00014323704,"MEAN_MOTION_DOT":0.00008042,"MEAN_MOTION_DDOT":0},{"OBJECT_NAME":"GHGSAT-C12","OBJECT_ID":"2025-135B","EPOCH":"2026-07-10T06:48:42.333120","CLASSIFICATION_TYPE":"U","MEAN_MOTION":15.20425996,"ECCENTRICITY":0.00064969,"INCLINATION":97.4764,"RA_OF_ASC_NODE":305.8897,"ARG_OF_PERICENTER":94.0738,"MEAN_ANOMALY":266.124,"EPHEMERIS_TYPE":0,"NORAD_CAT_ID":64529,"ELEMENT_SET_NO":999,"REV_AT_EPOCH":5833,"BSTAR":0.00010600728,"MEAN_MOTION_DOT":0.00002243,"MEAN_MOTION_DDOT":0},{"OBJECT_NAME":"GHGSAT-C13","OBJECT_ID":"2025-135W","EPOCH":"2026-07-10T06:35:27.453984","CLASSIFICATION_TYPE":"U","MEAN_MOTION":15.21369608,"ECCENTRICITY":0.00021261,"INCLINATION":97.4791,"RA_OF_ASC_NODE":306.4869,"ARG_OF_PERICENTER":72.8032,"MEAN_ANOMALY":287.3436,"EPHEMERIS_TYPE":0,"NORAD_CAT_ID":64548,"ELEMENT_SET_NO":999,"REV_AT_EPOCH":5836,"BSTAR":0.00018863502,"MEAN_MOTION_DOT":0.00004158,"MEAN_MOTION_DDOT":0}]}
