GHGSAT-C1               
1 46278U 20061G   26191.13953273  .00035138  00000+0  25691-3 0  9993
2 46278  97.2092 277.0451 0000545 172.3706 187.7567 15.73154453327083
GHGSAT-C2               
1 47509U 21006DA  26190.98731273  .00004631  00000+0  12570-3 0  9993
2 47509  97.2140 237.8618 0006867  89.1904 271.0128 15.38068179303356
GHGSAT-C3               
1 52737U 22057F   26191.25825072  .00004565  00000+0  13849-3 0  9997
2 52737  97.6619 337.7868 0006700  50.4786 309.7047 15.34639786229071
GHGSAT-C5               
1 52744U 22057N   26191.36272705  .00004511  00000+0  13696-3 0  9997
2 52744  97.6706 339.4961 0007374  47.1123 313.0738 15.34617946229096
GHGSAT-C4               
1 52746U 22057Q   26191.34413782  .00004535  00000+0  13764-3 0  9991
2 52746  97.6545 336.6838 0006603  35.3778 324.7901 15.34627933229098
GHGSAT-C8               
1 56186U 23054J   26191.28801978  .00012694  00000+0  20019-3 0  9998
2 56186  97.2965 100.9130 0003650  20.6040 339.5360 15.53668609182027
GHGSAT-C6               
1 56204U 23054AC  26191.25415977  .00011345  00000+0  17926-3 0  9991
2 56204  97.3027 101.5775 0003929 333.4671  26.6381 15.53645279182030
GHGSAT-C7               
1 56209U 23054AH  26191.30687613  .00008042  00000+0  14324-3 0  9999
2 56209  97.2978  99.9768 0005412 326.9790  33.1123 15.50375752181971
GHGSAT-C12              
1 64529U 25135B   26191.28382330  .00002243  00000+0  10601-3 0  9991
2 64529  97.4764 305.8897 0006496  94.0738 266.1240 15.20425996 58334
GHGSAT-C13              
1 64548U 25135W   26191.27462331  .00004158  00000+0  18864-3 0  9997
2 64548  97.4791 306.4869 0002126  72.8032 287.3436 15.21369608 58361
